ONEWEB-0113             
1 48050U 21025J   24007.91975880 -.00000271  00000+0 -77711-3 0  9994
2 48050  87.9011 137.6066 0001572 110.6599 249.4699 13.13471084136588
ONEWEB-0112             
1 48051U 21025K   24007.90706907 -.00000158  00000+0 -46869-3 0  9990
2 48051  87.9007 137.6175 0001481 103.4269 256.7025 13.13468698136590
ONEWEB-0156             
1 48052U 21025L   24007.91658494 -.00000237  00000+0 -68352-3 0  9998
2 48052  87.9010 137.6067 0001481 102.2816 257.8479 13.13470875136573
ONEWEB-0161             
1 48053U 21025M   24007.88960769  .00000366  00000+0  96686-3 0  9998
2 48053  87.9006 137.6146 0001664  96.9456 263.1863 13.13469158136501
ONEWEB-0158             
1 48054U 21025N   24007.85151665 -.00000261  00000+0 -75052-3 0  9993
2 48054  87.9008 137.6174 0001501 109.2557 250.8735 13.13470134136625
ONEWEB-0157             
1 48055U 21025P   24007.87532965  .00000261  00000+0  68092-3 0  9996
2 48055  87.9007 137.6299 0001478  95.8329 264.2968 13.13471691136562
ONEWEB-0162             
1 48056U 21025Q   24007.91500382 -.00000282  00000+0 -80615-3 0  9990
2 48056  87.9008 137.6198 0001486 102.8852 257.2443 13.13472868136546
ONEWEB-0155             
1 48057U 21025R   24007.85945353 -.00000055  00000+0 -18439-3 0  9998
2 48057  87.9006 137.6384 0001621 105.8268 254.3040 13.13471408136671
ONEWEB-0149             
1 48058U 21025S   24007.88008591  .00000464  00000+0  12347-2 0  9999
2 48058  87.9008 137.6318 0001368  88.4956 271.6330 13.13471360136489
ONEWEB-0148             
1 48059U 21025T   24007.92133713 -.00000300  00000+0 -85606-3 0  9990
2 48059  87.9010 137.6275 0001187  79.7756 280.3507 13.13468387136618
ONEWEB-0160             
1 48060U 21025U   24007.86103055 -.00000111  00000+0 -33953-3 0  9999
2 48060  87.9008 137.6352 0001737 140.5434 219.5821 13.13470726136550
ONEWEB-0163             
1 48061U 21025V   24007.84675270 -.00000348  00000+0 -98655-3 0  9993
2 48061  87.9007 137.6352 0001676  93.0528 267.0793 13.13470553136675
ONEWEB-0159             
1 48062U 21025W   24007.91182336 -.00000295  00000+0 -84336-3 0  9990
2 48062  87.9011 137.6072 0001500  97.1312 262.9987 13.13469497136609
ONEWEB-0164             
1 48063U 21025X   24007.89436913  .00000207  00000+0  53292-3 0  9999
2 48063  87.9010 137.6202 0001699 106.4097 253.7219 13.13468313136586
ONEWEB-0167             
1 48064U 21025Y   24007.84756667 -.00000302  00000+0 -86276-3 0  9992
2 48064  87.9008 137.6393 0001602  96.4600 263.6711 13.13470844136564
ONEWEB-0166             
1 48065U 21025Z   24007.86898013  .00000142  00000+0  35441-3 0  9995
2 48065  87.9005 137.6249 0001384 100.7271 259.4014 13.13471694136644
ONEWEB-0151             
1 48066U 21025AA  24007.87057384  .00000133  00000+0  32866-3 0  9993
2 48066  87.9007 137.6341 0001774 108.7771 251.3550 13.13470736136581
ONEWEB-0170             
1 48067U 21025AB  24007.87849572  .00000336  00000+0  88636-3 0  9993
2 48067  87.9007 137.6335 0002069 120.2595 239.8739 13.13470058136549
ONEWEB-0168             
1 48068U 21025AC  24007.86422890  .00000003  00000+0 -25482-4 0  9996
2 48068  87.9011 137.6012 0001556 101.4765 258.6539 13.13472837136552
ONEWEB-0173             
1 48069U 21025AD  24007.85627250 -.00000514  00000+0 -14421-2 0  9990
2 48069  87.9010 137.6135 0001980  93.1626 266.9730 13.13470068136797
ONEWEB-0171             
1 48070U 21025AE  24007.89278132  .00000317  00000+0  83435-3 0  9998
2 48070  87.9006 137.6410 0001738 103.5487 256.5836 13.13468975136619
ONEWEB-0172             
1 48071U 21025AF  24007.87215612  .00000172  00000+0  43514-3 0  9994
2 48071  87.9009 137.6121 0001795 101.6175 258.5156 13.13472173137509
ONEWEB-0174             
1 48072U 21025AG  24007.85469881 -.00000172  00000+0 -50723-3 0  9994
2 48072  87.9000 137.6297 0001391 101.2044 258.9241 13.13470883136827
ONEWEB-0175             
1 48073U 21025AH  24007.88326228  .00000298  00000+0  78095-3 0  9994
2 48073  87.9009 137.6216 0001971 111.5690 248.5649 13.13469193136484
ONEWEB-0177             
1 48074U 21025AJ  24007.89595290  .00000172  00000+0  43742-3 0  9995
2 48074  87.9009 137.6248 0001706  90.8476 269.2848 13.13468451136675
ONEWEB-0178             
1 48075U 21025AK  24007.91354407 -.00000205  00000+0 -59517-3 0  9998
2 48075  87.9015 137.6284 0001638  91.7620 268.3696 13.13467765136722
ONEWEB-0108             
1 48076U 21025AL  24007.79755984  .00000235  00000+0  60806-3 0  9994
2 48076  87.9005 137.6432 0001344 111.0975 249.0298 13.13469489136639
ONEWEB-0169             
1 48077U 21025AM  24007.90548969 -.00000035  00000+0 -13086-3 0  9999
2 48077  87.9012 137.6268 0001238 105.9772 254.1493 13.13470037135302
ONEWEB-0176             
1 48210U 21031A   24007.83973211 -.00000218  00000+0 -62218-3 0  9993
2 48210  87.8987 107.1214 0001719 107.4807 252.6511 13.14505513131213
ONEWEB-0184             
1 48211U 21031B   24007.81276808  .00000015  00000+0  63040-5 0  9999
2 48211  87.8986 107.1161 0002778 109.8028 250.3401 13.14502918131186
ONEWEB-0179             
1 48212U 21031C   24007.78264043  .00000082  00000+0  18798-3 0  9996
2 48212  87.8985 107.1192 0001705 100.8304 259.3018 13.14503416131229
ONEWEB-0180             
1 48213U 21031D   24007.81593977  .00000048  00000+0  95660-4 0  9998
2 48213  87.8986 107.1150 0001772  97.8193 262.3138 13.14502785131113
ONEWEB-0218             
1 48214U 21031E   24007.76202487 -.00000250  00000+0 -70825-3 0  9998
2 48214  87.8984 107.1278 0002911 102.4230 257.7225 13.14502040131269
ONEWEB-0209             
1 48215U 21031F   24007.82703376 -.00000109  00000+0 -32841-3 0  9998
2 48215  87.8977 107.1463 0001641 102.3588 257.7726 13.14501165131276
ONEWEB-0198             
1 48216U 21031G   24007.81118566  .00000062  00000+0  13152-3 0  9999
2 48216  87.8977 107.1556 0002171  98.5160 261.6216 13.14502822131382
ONEWEB-0189             
1 48217U 21031H   24007.82387099 -.00008944  00000+0 -24167-1 0  9995
2 48217  87.8974 107.1285 0002300  91.4415 268.6979 13.14547092131121
ONEWEB-0196             
1 48218U 21031J   24007.80166767  .00000247  00000+0  63092-3 0  9999
2 48218  87.8988 107.1328 0001876 106.4775 253.6561 13.14501351131127
ONEWEB-0183             
1 48219U 21031K   24007.77629334 -.00000030  00000+0 -11607-3 0  9997
2 48219  87.8973 107.1576 0001683 102.6129 257.5189 13.14504624131219
ONEWEB-0185             
1 48220U 21031L   24007.80246034  .00000160  00000+0  39613-3 0  9994
2 48220  87.8978 107.1249 0001648  95.8656 264.2661 13.14501386131146
ONEWEB-0187             
1 48221U 21031M   24007.77233016 -.00000109  00000+0 -32830-3 0  9996
2 48221  87.8984 107.1610 0001646  98.9538 261.1778 13.14502164131158
ONEWEB-0192             
1 48222U 21031N   24007.82862934 -.00000170  00000+0 -49267-3 0  9990
2 48222  87.8988 107.1462 0001908 103.7684 256.3658 13.14502301131073
ONEWEB-0219             
1 48223U 21031P   24007.80802465  .00000112  00000+0  26809-3 0  9993
2 48223  87.8976 107.1258 0001725 100.5286 259.6038 13.14513333131271
ONEWEB-0202             
1 48224U 21031Q   24007.78897922  .00000164  00000+0  40915-3 0  9994
2 48224  87.8973 107.1523 0002661  98.1408 262.0024 13.14502315131251
ONEWEB-0204             
1 48225U 21031R   24007.82308589 -.00000159  00000+0 -46233-3 0  9991
2 48225  87.8977 107.1576 0001251 107.8843 252.2423 13.14501804131154
ONEWEB-0205             
1 48226U 21031S   24007.79850295  .00000162  00000+0  40171-3 0  9991
2 48226  87.8973 107.1327 0001758 100.0394 260.0934 13.14501278131163
ONEWEB-0206             
1 48227U 21031T   24007.77153777 -.00000116  00000+0 -34788-3 0  9999
2 48227  87.8981 107.1302 0001620  96.0643 264.0671 13.14502393131111
ONEWEB-0182             
1 48228U 21031U   24007.76679556 -.00000167  00000+0 -48577-3 0  9994
2 48228  87.8978 107.1530 0001528 108.0770 252.0526 13.14500265131328
ONEWEB-0186             
1 48229U 21031V   24007.77787180 -.00000231  00000+0 -65781-3 0  9997
2 48229  87.8984 107.1145 0001830 104.1945 255.9388 13.14504148131271
ONEWEB-0181             
1 48230U 21031W   24007.75567456 -.00000217  00000+0 -62023-3 0  9999
2 48230  87.8978 107.1888 0001888 104.0437 256.0903 13.14503945131121
ONEWEB-0188             
1 48231U 21031X   24007.79374213  .00000140  00000+0  34374-3 0  9992
2 48231  87.8975 107.1790 0001707 103.2333 256.8987 13.14501700131034
ONEWEB-0220             
1 48232U 21031Y   24007.83337601 -.00000182  00000+0 -52530-3 0  9990
2 48232  87.8981 107.1432 0001699  95.6335 264.4989 13.14500876131301
ONEWEB-0165             
1 48233U 21031Z   24007.78581178  .00000829  00000+0  22024-2 0  9995
2 48233  87.8974 107.1611 0001777  89.0659 271.0674 13.14499095131255
ONEWEB-0199             
1 48234U 21031AA  24007.76995152 -.00000156  00000+0 -45651-3 0  9992
2 48234  87.8972 107.1351 0001730 100.9901 259.1423 13.14503655131153
ONEWEB-0203             
1 48235U 21031AB  24007.76043459 -.00000242  00000+0 -68834-3 0  9991
2 48235  87.8976 107.1373 0001873 112.8147 247.3181 13.14502445131161
ONEWEB-0197             
1 48236U 21031AC  24007.81198047  .00000072  00000+0  15914-3 0  9992
2 48236  87.8989 107.1338 0001292 107.1854 252.9417 13.14502259131082
ONEWEB-0194             
1 48237U 21031AD  24007.79056125  .00000084  00000+0  19299-3 0  9993
2 48237  87.8986 107.1300 0001928 116.7621 243.3706 13.14504128131254
ONEWEB-0193             
1 48238U 21031AE  24007.80642500  .00000137  00000+0  33636-3 0  9994
2 48238  87.8989 107.1348 0001919 105.8711 254.2630 13.14501771131202
ONEWEB-0191             
1 48239U 21031AF  24007.81752523  .00001104  00000+0  29414-2 0  9996
2 48239  87.8984 107.1214 0001841 111.2832 248.8495 13.14512880131064
ONEWEB-0195             
1 48240U 21031AG  24007.79453357  .00000169  00000+0  42127-3 0  9995
2 48240  87.8984 107.1259 0002121  97.0497 263.0874 13.14501739131044
